SL-14 R/B               
1 21423U 91042B   26023.98754515  .00000793  00000+0  97262-4 0  9993
2 21423  82.4915 262.1103 0017888  32.3703 327.8604 14.81785628846455
ERS-1                   
1 21574U 91050A   26024.27933806  .00000667  00000+0  22810-3 0  9990
2 21574  98.7898  41.3978 0031489 335.8629  24.1080 14.39407703809340
ARIANE 40 R/B           
1 21610U 91050F   26024.15845344  .00000787  00000+0  24818-3 0  9990
2 21610  98.2103  78.0462 0002870 186.7384 173.3769 14.42856683812572
INTERCOSMOS 25          
1 21819U 91086A   26024.23807027  .00001743  00000+0  34401-3 0  9997
2 21819  82.6091 336.8710 1486154 212.7224 137.2694 12.11875252491309
SL-8 R/B                
1 21876U 92008B   26024.22893093  .00000130  00000+0  11842-3 0  9995
2 21876  82.9287 300.8488 0033312 258.7603 211.6166 13.75968029703302
SL-8 R/B                
1 21938U 92020B   26024.19825348  .00000214  00000+0  20597-3 0  9992
2 21938  82.9304 186.7874 0030083  63.3005 109.4315 13.75541156695015
USA 81                  
1 21949U 92023A   26023.80986934  .00000413  00000+0  14577-3 0  9995
2 21949  85.0111 157.3162 0002100 115.0539 245.0872 14.32347985 88364
COSMOS 2219             
1 22219U 92076A   26024.23866702 -.00000121  00000+0 -38664-4 0  9994
2 22219  71.0613 110.9963 0020819 268.7400  91.1337 14.14081130712098
SL-16 R/B               
1 22220U 92076B   26024.15807375 -.00000109  00000+0 -30252-4 0  9999
2 22220  71.0000 282.1800 0012417 173.5515 298.8622 14.16850587715523
COSMOS 2221             
1 22236U 92080A   26024.22778188  .00004341  00000+0  38432-3 0  9995
2 22236  82.5066 321.6552 0014267 349.4698  10.6222 14.95990542774145
SL-16 R/B               
1 22285U 92093B   26024.21722207  .00000134  00000+0  92818-4 0  9998
2 22285  71.0222  97.6291 0004391 342.8998  17.1976 14.15443173706860
COSMOS 2228             
1 22286U 92094A   26024.27316222  .00003262  00000+0  28043-3 0  9995
2 22286  82.5177 279.8376 0019622  90.7981 269.5490 14.96972909769416
