CCSDS_OMM_VERS = 2.0
CREATION_DATE  = 
ORIGINATOR     = 

OBJECT_NAME    = SL-14 R/B
OBJECT_ID      = 1991-042B
CENTER_NAME    = EARTH
REF_FRAME      = TEME
TIME_SYSTEM    = UTC
MEAN_ELEMENT_THEORY = SGP/SGP4

EPOCH          = 2026-01-23T23:42:03.900960
MEAN_MOTION    = 14.81785628
ECCENTRICITY   = .00178889
INCLINATION    = 82.4915
RA_OF_ASC_NODE = 262.1103
ARG_OF_PERICENTER = 32.3703
MEAN_ANOMALY   = 327.8604

EPHEMERIS_TYPE = 0
CLASSIFICATION_TYPE = U
NORAD_CAT_ID   = 21423
ELEMENT_SET_NO = 999
REV_AT_EPOCH   = 84645
BSTAR          = .97261795E-4
MEAN_MOTION_DOT = .793E-5
MEAN_MOTION_DDOT = 0

CCSDS_OMM_VERS = 2.0
CREATION_DATE  = 
ORIGINATOR     = 

OBJECT_NAME    = ERS-1
OBJECT_ID      = 1991-050A
CENTER_NAME    = EARTH
REF_FRAME      = TEME
TIME_SYSTEM    = UTC
MEAN_ELEMENT_THEORY = SGP/SGP4

EPOCH          = 2026-01-24T06:42:14.808384
MEAN_MOTION    = 14.39407703
ECCENTRICITY   = .00314895
INCLINATION    = 98.7898
RA_OF_ASC_NODE = 41.3978
ARG_OF_PERICENTER = 335.8629
MEAN_ANOMALY   = 24.1080

EPHEMERIS_TYPE = 0
CLASSIFICATION_TYPE = U
NORAD_CAT_ID   = 21574
ELEMENT_SET_NO = 999
REV_AT_EPOCH   = 80934
BSTAR          = .2280953E-3
MEAN_MOTION_DOT = .667E-5
MEAN_MOTION_DDOT = 0

CCSDS_OMM_VERS = 2.0
CREATION_DATE  = 
ORIGINATOR     = 

OBJECT_NAME    = ARIANE 40 R/B
OBJECT_ID      = 1991-050F
CENTER_NAME    = EARTH
REF_FRAME      = TEME
TIME_SYSTEM    = UTC
MEAN_ELEMENT_THEORY = SGP/SGP4

EPOCH          = 2026-01-24T03:48:10.377216
MEAN_MOTION    = 14.42856683
ECCENTRICITY   = .00028704
INCLINATION    = 98.2103
RA_OF_ASC_NODE = 78.0462
ARG_OF_PERICENTER = 186.7384
MEAN_ANOMALY   = 173.3769

EPHEMERIS_TYPE = 0
CLASSIFICATION_TYPE = U
NORAD_CAT_ID   = 21610
ELEMENT_SET_NO = 999
REV_AT_EPOCH   = 81257
BSTAR          = .24818491E-3
MEAN_MOTION_DOT = .787E-5
MEAN_MOTION_DDOT = 0

CCSDS_OMM_VERS = 2.0
CREATION_DATE  = 
ORIGINATOR     = 

OBJECT_NAME    = INTERCOSMOS 25
OBJECT_ID      = 1991-086A
CENTER_NAME    = EARTH
REF_FRAME      = TEME
TIME_SYSTEM    = UTC
MEAN_ELEMENT_THEORY = SGP/SGP4

EPOCH          = 2026-01-24T05:42:49.271328
MEAN_MOTION    = 12.11875252
ECCENTRICITY   = .14861548
INCLINATION    = 82.6091
RA_OF_ASC_NODE = 336.8710
ARG_OF_PERICENTER = 212.7224
MEAN_ANOMALY   = 137.2694

EPHEMERIS_TYPE = 0
CLASSIFICATION_TYPE = U
NORAD_CAT_ID   = 21819
ELEMENT_SET_NO = 999
REV_AT_EPOCH   = 49130
BSTAR          = .34401154E-3
MEAN_MOTION_DOT = .1743E-4
MEAN_MOTION_DDOT = 0

CCSDS_OMM_VERS = 2.0
CREATION_DATE  = 
ORIGINATOR     = 

OBJECT_NAME    = SL-8 R/B
OBJECT_ID      = 1992-008B
CENTER_NAME    = EARTH
REF_FRAME      = TEME
TIME_SYSTEM    = UTC
MEAN_ELEMENT_THEORY = SGP/SGP4

EPOCH          = 2026-01-24T05:29:39.632352
MEAN_MOTION    = 13.75968029
ECCENTRICITY   = .00333125
INCLINATION    = 82.9287
RA_OF_ASC_NODE = 300.8488
ARG_OF_PERICENTER = 258.7603
MEAN_ANOMALY   = 211.6166

EPHEMERIS_TYPE = 0
CLASSIFICATION_TYPE = U
NORAD_CAT_ID   = 21876
ELEMENT_SET_NO = 999
REV_AT_EPOCH   = 70330
BSTAR          = .11842207E-3
MEAN_MOTION_DOT = .13E-5
MEAN_MOTION_DDOT = 0

CCSDS_OMM_VERS = 2.0
CREATION_DATE  = 
ORIGINATOR     = 

OBJECT_NAME    = SL-8 R/B
OBJECT_ID      = 1992-020B
CENTER_NAME    = EARTH
REF_FRAME      = TEME
TIME_SYSTEM    = UTC
MEAN_ELEMENT_THEORY = SGP/SGP4

EPOCH          = 2026-01-24T04:45:29.100672
MEAN_MOTION    = 13.75541156
ECCENTRICITY   = .00300831
INCLINATION    = 82.9304
RA_OF_ASC_NODE = 186.7874
ARG_OF_PERICENTER = 63.3005
MEAN_ANOMALY   = 109.4315

EPHEMERIS_TYPE = 0
CLASSIFICATION_TYPE = U
NORAD_CAT_ID   = 21938
ELEMENT_SET_NO = 999
REV_AT_EPOCH   = 69501
BSTAR          = .20597282E-3
MEAN_MOTION_DOT = .214E-5
MEAN_MOTION_DDOT = 0

CCSDS_OMM_VERS = 2.0
CREATION_DATE  = 
ORIGINATOR     = 

OBJECT_NAME    = USA 81
OBJECT_ID      = 1992-023A
CENTER_NAME    = EARTH
REF_FRAME      = TEME
TIME_SYSTEM    = UTC
MEAN_ELEMENT_THEORY = SGP/SGP4

EPOCH          = 2026-01-23T19:26:12.710976
MEAN_MOTION    = 14.32347985
ECCENTRICITY   = .00021005
INCLINATION    = 85.0111
RA_OF_ASC_NODE = 157.3162
ARG_OF_PERICENTER = 115.0539
MEAN_ANOMALY   = 245.0872

EPHEMERIS_TYPE = 0
CLASSIFICATION_TYPE = U
NORAD_CAT_ID   = 21949
ELEMENT_SET_NO = 999
REV_AT_EPOCH   = 8836
BSTAR          = .14577013E-3
MEAN_MOTION_DOT = .413E-5
MEAN_MOTION_DDOT = 0

CCSDS_OMM_VERS = 2.0
CREATION_DATE  = 
ORIGINATOR     = 

OBJECT_NAME    = COSMOS 2219
OBJECT_ID      = 1992-076A
CENTER_NAME    = EARTH
REF_FRAME      = TEME
TIME_SYSTEM    = UTC
MEAN_ELEMENT_THEORY = SGP/SGP4

EPOCH          = 2026-01-24T05:43:40.830528
MEAN_MOTION    = 14.14081130
ECCENTRICITY   = .00208197
INCLINATION    = 71.0613
RA_OF_ASC_NODE = 110.9963
ARG_OF_PERICENTER = 268.7400
MEAN_ANOMALY   = 91.1337

EPHEMERIS_TYPE = 0
CLASSIFICATION_TYPE = U
NORAD_CAT_ID   = 22219
ELEMENT_SET_NO = 999
REV_AT_EPOCH   = 71209
BSTAR          = -.38664023E-4
MEAN_MOTION_DOT = -.121E-5
MEAN_MOTION_DDOT = 0

CCSDS_OMM_VERS = 2.0
CREATION_DATE  = 
ORIGINATOR     = 

OBJECT_NAME    = SL-16 R/B
OBJECT_ID      = 1992-076B
CENTER_NAME    = EARTH
REF_FRAME      = TEME
TIME_SYSTEM    = UTC
MEAN_ELEMENT_THEORY = SGP/SGP4

EPOCH          = 2026-01-24T03:47:37.572000
MEAN_MOTION    = 14.16850587
ECCENTRICITY   = .0012417
INCLINATION    = 71.0000
RA_OF_ASC_NODE = 282.1800
ARG_OF_PERICENTER = 173.5515
MEAN_ANOMALY   = 298.8622

EPHEMERIS_TYPE = 0
CLASSIFICATION_TYPE = U
NORAD_CAT_ID   = 22220
ELEMENT_SET_NO = 999
REV_AT_EPOCH   = 71552
BSTAR          = -.30252256E-4
MEAN_MOTION_DOT = -.109E-5
MEAN_MOTION_DDOT = 0

CCSDS_OMM_VERS = 2.0
CREATION_DATE  = 
ORIGINATOR     = 

OBJECT_NAME    = COSMOS 2221
OBJECT_ID      = 1992-080A
CENTER_NAME    = EARTH
REF_FRAME      = TEME
TIME_SYSTEM    = UTC
MEAN_ELEMENT_THEORY = SGP/SGP4

EPOCH          = 2026-01-24T05:28:00.354432
MEAN_MOTION    = 14.95990542
ECCENTRICITY   = .00142673
INCLINATION    = 82.5066
RA_OF_ASC_NODE = 321.6552
ARG_OF_PERICENTER = 349.4698
MEAN_ANOMALY   = 10.6222

EPHEMERIS_TYPE = 0
CLASSIFICATION_TYPE = U
NORAD_CAT_ID   = 22236
ELEMENT_SET_NO = 999
REV_AT_EPOCH   = 77414
BSTAR          = .38432075E-3
MEAN_MOTION_DOT = .4341E-4
MEAN_MOTION_DDOT = 0

CCSDS_OMM_VERS = 2.0
CREATION_DATE  = 
ORIGINATOR     = 

OBJECT_NAME    = SL-16 R/B
OBJECT_ID      = 1992-093B
CENTER_NAME    = EARTH
REF_FRAME      = TEME
TIME_SYSTEM    = UTC
MEAN_ELEMENT_THEORY = SGP/SGP4

EPOCH          = 2026-01-24T05:12:47.986848
MEAN_MOTION    = 14.15443173
ECCENTRICITY   = .00043912
INCLINATION    = 71.0222
RA_OF_ASC_NODE = 97.6291
ARG_OF_PERICENTER = 342.8998
MEAN_ANOMALY   = 17.1976

EPHEMERIS_TYPE = 0
CLASSIFICATION_TYPE = U
NORAD_CAT_ID   = 22285
ELEMENT_SET_NO = 999
REV_AT_EPOCH   = 70686
BSTAR          = .92817731E-4
MEAN_MOTION_DOT = .134E-5
MEAN_MOTION_DDOT = 0

CCSDS_OMM_VERS = 2.0
CREATION_DATE  = 
ORIGINATOR     = 

OBJECT_NAME    = COSMOS 2228
OBJECT_ID      = 1992-094A
CENTER_NAME    = EARTH
REF_FRAME      = TEME
TIME_SYSTEM    = UTC
MEAN_ELEMENT_THEORY = SGP/SGP4

EPOCH          = 2026-01-24T06:33:21.215808
MEAN_MOTION    = 14.96972909
ECCENTRICITY   = .00196229
INCLINATION    = 82.5177
RA_OF_ASC_NODE = 279.8376
ARG_OF_PERICENTER = 90.7981
MEAN_ANOMALY   = 269.5490

EPHEMERIS_TYPE = 0
CLASSIFICATION_TYPE = U
NORAD_CAT_ID   = 22286
ELEMENT_SET_NO = 999
REV_AT_EPOCH   = 76941
BSTAR          = .28043393E-3
MEAN_MOTION_DOT = .3262E-4
MEAN_MOTION_DDOT = 0

